{"type": "FeatureCollection", "features": [ {"type": "Feature", "properties": {"norad_id": 66527, "name": "STARLINK-35935", "group": "last-30-days", "lat": 42.8233786969021, "lon": 119.19912515647435, "alt_km": 408.7927141324262, "timestamp": "2025-12-15T22:44:27.659504+00:00", "meta": {"OBJECT_NAME": "STARLINK-35935", "OBJECT_ID": "2025-265M", "EPOCH": "2025-12-15T05:22:08.914656", "MEAN_MOTION": 15.5058883, "ECCENTRICITY": 0.00015859, "INCLINATION": 43.0013, "RA_OF_ASC_NODE": 39.4445, "ARG_OF_PERICENTER": 277.303, "MEAN_ANOMALY": 82.765, "EPHEMERIS_TYPE": 0, "CLASSIFICATION_TYPE": "U", "NORAD_CAT_ID": 66527, "ELEMENT_SET_NO": 999, "REV_AT_EPOCH": 414, "BSTAR": 0.0017225363, "MEAN_MOTION_DOT": 0.00102075, "MEAN_MOTION_DDOT": 0}, "tle": {"line1": "1 66527U 25265M   25349.22371429  .00102075  00000+0  17225-2 0  9992", "line2": "2 66527  43.0013  39.4445 0001585 277.3030  82.7650 15.50588830  4149"}}, "geometry": {"type": "Point", "coordinates": [119.19912515647435, 42.8233786969021]}}, {"type": "Feature", "properties": {"norad_id": 66528, "name": "STARLINK-35928", "group": "last-30-days", "lat": 42.939315333961105, "lon": 122.11217381711938, "alt_km": 408.60633838136073, "timestamp": "2025-12-15T22:44:27.659515+00:00", "meta": {"OBJECT_NAME": "STARLINK-35928", "OBJECT_ID": "2025-265N", "EPOCH": "2025-12-15T03:48:51.812064", "MEAN_MOTION": 15.50651241, "ECCENTRICITY": 0.00013007, "INCLINATION": 43.0014, "RA_OF_ASC_NODE": 39.819, "ARG_OF_PERICENTER": 242.4749, "MEAN_ANOMALY": 117.5979, "EPHEMERIS_TYPE": 0, "CLASSIFICATION_TYPE": "U", "NORAD_CAT_ID": 66528, "ELEMENT_SET_NO": 999, "REV_AT_EPOCH": 413, "BSTAR": 0.00080909199, "MEAN_MOTION_DOT": 0.00047535, "MEAN_MOTION_DDOT": 0}, "tle": {"line1": "1 66528U 25265N   25349.15893301  .00047535  00000+0  80909-3 0  9992", "line2": "2 66528  43.0014  39.8190 0001300 242.4749 117.5979 15.50651241  4134"}}, "geometry": {"type": "Point", "coordinates": [122.11217381711938, 42.939315333961105]}}, {"type": "Feature", "properties": {"norad_id": 66529, "name": "STARLINK-35933", "group": "last-30-days", "lat": -32.3132185994311, "lon": -7.203691077905544, "alt_km": 446.22375073621333, "timestamp": "2025-12-15T22:44:27.659525+00:00", "meta": {"OBJECT_NAME": "STARLINK-35933", "OBJECT_ID": "2025-265P", "EPOCH": "2025-12-15T08:00:01.999872", "MEAN_MOTION": 15.40698627, "ECCENTRICITY": 0.00011654, "INCLINATION": 43.0004, "RA_OF_ASC_NODE": 39.0818, "ARG_OF_PERICENTER": 272.5558, "MEAN_ANOMALY": 225.2184, "EPHEMERIS_TYPE": 0, "CLASSIFICATION_TYPE": "U", "NORAD_CAT_ID": 66529, "ELEMENT_SET_NO": 999, "REV_AT_EPOCH": 541, "BSTAR": -1.1784886e-05, "MEAN_MOTION_DOT": -7.95e-06, "MEAN_MOTION_DDOT": 0}, "tle": {"line1": "1 66529U 25265P   25349.33335648 -.00000795  00000+0 -11785-4 0  9994", "line2": "2 66529  43.0004  39.0818 0001165 272.5558 225.2184 15.40698627  5419"}}, "geometry": {"type": "Point", "coordinates": [-7.203691077905544, -32.3132185994311]}}, {"type": "Feature", "properties": {"norad_id": 66530, "name": "STARLINK-35961", "group": "last-30-days", "lat": -17.88419920384336, "lon": 15.22261102893838, "alt_km": 445.39176044601936, "timestamp": "2025-12-15T22:44:27.659535+00:00", "meta": {"OBJECT_NAME": "STARLINK-35961", "OBJECT_ID": "2025-265Q", "EPOCH": "2025-12-15T08:00:01.999872", "MEAN_MOTION": 15.4069616, "ECCENTRICITY": 0.00011145, "INCLINATION": 43.0005, "RA_OF_ASC_NODE": 39.0226, "ARG_OF_PERICENTER": 271.4665, "MEAN_ANOMALY": 251.1862, "EPHEMERIS_TYPE": 0, "CLASSIFICATION_TYPE": "U", "NORAD_CAT_ID": 66530, "ELEMENT_SET_NO": 999, "REV_AT_EPOCH": 541, "BSTAR": 0.00015776216, "MEAN_MOTION_DOT": 6.291e-05, "MEAN_MOTION_DDOT": 0}, "tle": {"line1": "1 66530U 25265Q   25349.33335648  .00006291  00000+0  15776-3 0  9994", "line2": "2 66530  43.0005  39.0226 0001114 271.4665 251.1862 15.40696160  5417"}}, "geometry": {"type": "Point", "coordinates": [15.22261102893838, -17.88419920384336]}}, {"type": "Feature", "properties": {"norad_id": 66531, "name": "STARLINK-35960", "group": "last-30-days", "lat": -1.2934624486586765, "lon": 34.032475801111545, "alt_km": 443.58155942152007, "timestamp": "2025-12-15T22:44:27.659545+00:00", "meta": {"OBJECT_NAME": "STARLINK-35960", "OBJECT_ID": "2025-265R", "EPOCH": "2025-12-15T08:00:01.999872", "MEAN_MOTION": 15.40696428, "ECCENTRICITY": 0.00012724, "INCLINATION": 43.0004, "RA_OF_ASC_NODE": 38.961, "ARG_OF_PERICENTER": 291.4617, "MEAN_ANOMALY": 256.0738, "EPHEMERIS_TYPE": 0, "CLASSIFICATION_TYPE": "U", "NORAD_CAT_ID": 66531, "ELEMENT_SET_NO": 999, "REV_AT_EPOCH": 541, "BSTAR": 9.5635284e-05, "MEAN_MOTION_DOT": 3.693e-05, "MEAN_MOTION_DDOT": 0}, "tle": {"line1": "1 66531U 25265R   25349.33335648  .00003693  00000+0  95635-4 0  9991", "line2": "2 66531  43.0004  38.9610 0001272 291.4617 256.0738 15.40696428  5419"}}, "geometry": {"type": "Point", "coordinates": [34.032475801111545, -1.2934624486586765]}}, {"type": "Feature", "properties": {"norad_id": 66532, "name": "STARLINK-35914", "group": "last-30-days", "lat": 15.449102900999112, "lon": 52.61282480663447, "alt_km": 441.6690584413209, "timestamp": "2025-12-15T22:44:27.659555+00:00", "meta": {"OBJECT_NAME": "STARLINK-35914", "OBJECT_ID": "2025-265S", "EPOCH": "2025-12-15T08:00:01.999872", "MEAN_MOTION": 15.40688674, "ECCENTRICITY": 0.0001527, "INCLINATION": 43, "RA_OF_ASC_NODE": 38.9007, "ARG_OF_PERICENTER": 285.1276, "MEAN_ANOMALY": 287.303, "EPHEMERIS_TYPE": 0, "CLASSIFICATION_TYPE": "U", "NORAD_CAT_ID": 66532, "ELEMENT_SET_NO": 999, "REV_AT_EPOCH": 541, "BSTAR": 0.00020517324, "MEAN_MOTION_DOT": 8.273e-05, "MEAN_MOTION_DDOT": 0}, "tle": {"line1": "1 66532U 25265S   25349.33335648  .00008273  00000+0  20517-3 0  9997", "line2": "2 66532  43.0000  38.9007 0001527 285.1276 287.3030 15.40688674  5416"}}, "geometry": {"type": "Point", "coordinates": [52.61282480663447, 15.449102900999112]}}, {"type": "Feature", "properties": {"norad_id": 66533, "name": "STARLINK-35707", "group": "last-30-days", "lat": 42.45148381356928, "lon": 136.14945426019383, "alt_km": 408.93125233801857, "timestamp": "2025-12-15T22:44:27.659567+00:00", "meta": {"OBJECT_NAME": "STARLINK-35707", "OBJECT_ID": "2025-265T", "EPOCH": "2025-12-13T20:51:14.754528", "MEAN_MOTION": 15.50564385, "ECCENTRICITY": 0.00024505, "INCLINATION": 42.9992, "RA_OF_ASC_NODE": 47.3369, "ARG_OF_PERICENTER": 286.6299, "MEAN_ANOMALY": 73.4292, "EPHEMERIS_TYPE": 0, "CLASSIFICATION_TYPE": "U", "NORAD_CAT_ID": 66533, "ELEMENT_SET_NO": 999, "REV_AT_EPOCH": 393, "BSTAR": 0.0012610474, "MEAN_MOTION_DOT": 0.00074308, "MEAN_MOTION_DDOT": 0}, "tle": {"line1": "1 66533U 25265T   25347.86892077  .00074308  00000+0  12610-2 0  9994", "line2": "2 66533  42.9992  47.3369 0002450 286.6299  73.4292 15.50564385  3939"}}, "geometry": {"type": "Point", "coordinates": [136.14945426019383, 42.45148381356928]}}, {"type": "Feature", "properties": {"norad_id": 66534, "name": "STARLINK-35976", "group": "last-30-days", "lat": 42.27846175204697, "lon": 137.7976781989817, "alt_km": 408.785708348576, "timestamp": "2025-12-15T22:44:27.659582+00:00", "meta": {"OBJECT_NAME": "STARLINK-35976", "OBJECT_ID": "2025-265U", "EPOCH": "2025-12-15T03:45:53.820288", "MEAN_MOTION": 15.50660145, "ECCENTRICITY": 0.00014712, "INCLINATION": 42.9975, "RA_OF_ASC_NODE": 39.8011, "ARG_OF_PERICENTER": 259.3287, "MEAN_ANOMALY": 100.7408, "EPHEMERIS_TYPE": 0, "CLASSIFICATION_TYPE": "U", "NORAD_CAT_ID": 66534, "ELEMENT_SET_NO": 999, "REV_AT_EPOCH": 413, "BSTAR": 0.00091597059, "MEAN_MOTION_DOT": 0.00053921, "MEAN_MOTION_DDOT": 0}, "tle": {"line1": "1 66534U 25265U   25349.15687292  .00053921  00000+0  91597-3 0  9990", "line2": "2 66534  42.9975  39.8011 0001471 259.3287 100.7408 15.50660145  4134"}}, "geometry": {"type": "Point", "coordinates": [137.7976781989817, 42.27846175204697]}}, {"type": "Feature", "properties": {"norad_id": 66535, "name": "STARLINK-35514", "group": "last-30-days", "lat": 41.789161164229206, "lon": 141.6067985438117, "alt_km": 408.13590933048545, "timestamp": "2025-12-15T22:44:27.659594+00:00", "meta": {"OBJECT_NAME": "STARLINK-35514", "OBJECT_ID": "2025-265V", "EPOCH": "2025-12-14T10:45:04.309920", "MEAN_MOTION": 15.50620505, "ECCENTRICITY": 0.00016527, "INCLINATION": 43.0008, "RA_OF_ASC_NODE": 43.9405, "ARG_OF_PERICENTER": 257.8771, "MEAN_ANOMALY": 102.1904, "EPHEMERIS_TYPE": 0, "CLASSIFICATION_TYPE": "U", "NORAD_CAT_ID": 66535, "ELEMENT_SET_NO": 999, "REV_AT_EPOCH": 402, "BSTAR": 0.0022722023, "MEAN_MOTION_DOT": 0.0013549, "MEAN_MOTION_DDOT": 0}, "tle": {"line1": "1 66535U 25265V   25348.44796655  .00135490  00000+0  22722-2 0  9991", "line2": "2 66535  43.0008  43.9405 0001652 257.8771 102.1904 15.50620505  4020"}}, "geometry": {"type": "Point", "coordinates": [141.6067985438117, 41.789161164229206]}}, {"type": "Feature", "properties": {"norad_id": 66536, "name": "STARLINK-35640", "group": "last-30-days", "lat": 41.61712866806645, "lon": 142.74128078932938, "alt_km": 409.06209040991325, "timestamp": "2025-12-15T22:44:27.659604+00:00", "meta": {"OBJECT_NAME": "STARLINK-35640", "OBJECT_ID": "2025-265W", "EPOCH": "2025-12-15T03:44:54.588768", "MEAN_MOTION": 15.50617506, "ECCENTRICITY": 0.00018369, "INCLINATION": 43.0011, "RA_OF_ASC_NODE": 39.7948, "ARG_OF_PERICENTER": 248.9899, "MEAN_ANOMALY": 111.0765, "EPHEMERIS_TYPE": 0, "CLASSIFICATION_TYPE": "U", "NORAD_CAT_ID": 66536, "ELEMENT_SET_NO": 999, "REV_AT_EPOCH": 413, "BSTAR": 0.0011970398, "MEAN_MOTION_DOT": 0.00070617, "MEAN_MOTION_DDOT": 0}, "tle": {"line1": "1 66536U 25265W   25349.15618737  .00070617  00000+0  11970-2 0  9997", "line2": "2 66536  43.0011  39.7948 0001836 248.9899 111.0765 15.50617506  4139"}}, "geometry": {"type": "Point", "coordinates": [142.74128078932938, 41.61712866806645]}}]}